{
  "norad_id": 54062,
  "name": "STARLINK-5170",
  "history": [
    {
      "epoch": "2026-04-13T22:11:17.206080Z",
      "apogee_km": 540.5098420931281,
      "perigee_km": 538.9892906258428,
      "latitude_deg": -7.43422708692387e-05,
      "longitude_deg": 10.983650585470484,
      "height_km": 540.6104339275056,
      "semi_major_axis_km": 6917.886566359485,
      "eccentricity": 0.0001099,
      "inclination_deg": 53.2174,
      "raan_deg": 185.9137,
      "arg_perigee_deg": 87.3457,
      "mean_anomaly_deg": 272.766,
      "mean_motion_rev_day": 15.08837979
    },
    {
      "epoch": "2026-04-15T10:45:09.792864Z",
      "apogee_km": 540.5422147167774,
      "perigee_km": 538.9606470637073,
      "latitude_deg": 6.750109084361453e-07,
      "longitude_deg": 174.17394214371018,
      "height_km": 540.6136714590228,
      "semi_major_axis_km": 6917.888430890242,
      "eccentricity": 0.00011431,
      "inclination_deg": 53.2174,
      "raan_deg": 179.0747,
      "arg_perigee_deg": 87.5529,
      "mean_anomaly_deg": 272.5594,
      "mean_motion_rev_day": 15.08837369
    },
    {
      "epoch": "2026-04-16T12:11:19.702752Z",
      "apogee_km": 540.4527886973883,
      "perigee_km": 539.036006587151,
      "latitude_deg": -2.6293146305395632e-05,
      "longitude_deg": 146.82901002120244,
      "height_km": 540.6066597145233,
      "semi_major_axis_km": 6917.881397642269,
      "eccentricity": 0.0001024,
      "inclination_deg": 53.2171,
      "raan_deg": 174.3157,
      "arg_perigee_deg": 87.259,
      "mean_anomaly_deg": 272.8519,
      "mean_motion_rev_day": 15.0883967
    },
    {
      "epoch": "2026-04-17T21:34:25.061088Z",
      "apogee_km": 540.4176007161523,
      "perigee_km": 539.0363799918387,
      "latitude_deg": -2.181330572110234e-05,
      "longitude_deg": -1.5591769880158302,
      "height_km": 540.5779328145865,
      "semi_major_axis_km": 6917.863990353995,
      "eccentricity": 9.983e-05,
      "inclination_deg": 53.2172,
      "raan_deg": 168.0709,
      "arg_perigee_deg": 86.2437,
      "mean_anomaly_deg": 273.8669,
      "mean_motion_rev_day": 15.08845365
    },
    {
      "epoch": "2026-04-18T10:17:30.444576Z",
      "apogee_km": 540.4937693175361,
      "perigee_km": 538.9815219200036,
      "latitude_deg": -2.4701139815535268e-05,
      "longitude_deg": 164.76677342106217,
      "height_km": 540.6101563286185,
      "semi_major_axis_km": 6917.874645618769,
      "eccentricity": 0.0001093,
      "inclination_deg": 53.2168,
      "raan_deg": 165.6916,
      "arg_perigee_deg": 88.2188,
      "mean_anomaly_deg": 271.8929,
      "mean_motion_rev_day": 15.08841879
    },
    {
      "epoch": "2026-04-19T10:08:17.241792Z",
      "apogee_km": 540.5148869554741,
      "perigee_km": 538.9488198044455,
      "latitude_deg": -2.024541917636801e-05,
      "longitude_deg": 161.632753719212,
      "height_km": 540.5547313969796,
      "semi_major_axis_km": 6917.86885337996,
      "eccentricity": 0.00011319,
      "inclination_deg": 53.2172,
      "raan_deg": 161.2319,
      "arg_perigee_deg": 84.641,
      "mean_anomaly_deg": 275.4711,
      "mean_motion_rev_day": 15.08843774
    },
    {
      "epoch": "2026-04-20T09:59:04.919424Z",
      "apogee_km": 540.5226121619189,
      "perigee_km": 539.0085600019293,
      "latitude_deg": 3.5264725773098724e-05,
      "longitude_deg": 158.49449242385845,
      "height_km": 540.5695701290973,
      "semi_major_axis_km": 6917.902586081924,
      "eccentricity": 0.00010943,
      "inclination_deg": 53.2166,
      "raan_deg": 156.7716,
      "arg_perigee_deg": 83.0193,
      "mean_anomaly_deg": 277.0924,
      "mean_motion_rev_day": 15.08832738
    },
    {
      "epoch": "2026-04-21T09:49:52.414752Z",
      "apogee_km": 540.484404946561,
      "perigee_km": 539.0580706260944,
      "latitude_deg": -2.1365934164158707e-05,
      "longitude_deg": 155.3561087090926,
      "height_km": 540.5384276459253,
      "semi_major_axis_km": 6917.908237786327,
      "eccentricity": 0.00010309,
      "inclination_deg": 53.216,
      "raan_deg": 152.3105,
      "arg_perigee_deg": 79.5918,
      "mean_anomaly_deg": 280.519,
      "mean_motion_rev_day": 15.08830889
    },
    {
      "epoch": "2026-04-22T19:12:59.126112Z",
      "apogee_km": 540.4635430395274,
      "perigee_km": 539.0924122909546,
      "latitude_deg": -3.9824977550187096e-05,
      "longitude_deg": 6.962546146356675,
      "height_km": 540.4908946565192,
      "semi_major_axis_km": 6917.914977665241,
      "eccentricity": 9.91e-05,
      "inclination_deg": 53.2162,
      "raan_deg": 146.066,
      "arg_perigee_deg": 74.4994,
      "mean_anomaly_deg": 285.6107,
      "mean_motion_rev_day": 15.08828684
    },
    {
      "epoch": "2026-04-23T06:20:41.339904Z",
      "apogee_km": 540.4453081810389,
      "perigee_km": 539.1093205686466,
      "latitude_deg": 5.747143074452754e-06,
      "longitude_deg": -162.50193857157083,
      "height_km": 540.4791978564197,
      "semi_major_axis_km": 6917.914314374842,
      "eccentricity": 9.656e-05,
      "inclination_deg": 53.2163,
      "raan_deg": 143.9844,
      "arg_perigee_deg": 73.0903,
      "mean_anomaly_deg": 287.0195,
      "mean_motion_rev_day": 15.08828901
    },
    {
      "epoch": "2026-04-24T10:57:38.198304Z",
      "apogee_km": 540.4656319696287,
      "perigee_km": 539.0654484954857,
      "latitude_deg": -5.7232221236013637e-05,
      "longitude_deg": 121.73289398063811,
      "height_km": 540.4521422248467,
      "semi_major_axis_km": 6917.902540232557,
      "eccentricity": 0.0001012,
      "inclination_deg": 53.2161,
      "raan_deg": 138.6314,
      "arg_perigee_deg": 72.5867,
      "mean_anomaly_deg": 287.5235,
      "mean_motion_rev_day": 15.08832753
    },
    {
      "epoch": "2026-04-25T18:45:20.808576Z",
      "apogee_km": 540.4221987608726,
      "perigee_km": 539.0593768366762,
      "latitude_deg": 1.5135402367597227e-05,
      "longitude_deg": -2.4468767581929542,
      "height_km": 540.4543464059676,
      "semi_major_axis_km": 6917.877787798774,
      "eccentricity": 9.85e-05,
      "inclination_deg": 53.2158,
      "raan_deg": 132.6849,
      "arg_perigee_deg": 74.4618,
      "mean_anomaly_deg": 285.6483,
      "mean_motion_rev_day": 15.08840851
    },
    {
      "epoch": "2026-04-26T12:14:34.958976Z",
      "apogee_km": 540.4627970788752,
      "perigee_km": 538.9865254003671,
      "latitude_deg": 2.622145171441305e-05,
      "longitude_deg": 91.25479534247522,
      "height_km": 540.363820544677,
      "semi_major_axis_km": 6917.861661239621,
      "eccentricity": 0.0001067,
      "inclination_deg": 53.2158,
      "raan_deg": 129.4137,
      "arg_perigee_deg": 69.6351,
      "mean_anomaly_deg": 290.4756,
      "mean_motion_rev_day": 15.08846127
    },
    {
      "epoch": "2026-04-27T07:19:11.970624Z",
      "apogee_km": 540.4530303845067,
      "perigee_km": 538.9629265761423,
      "latitude_deg": 4.703619186971378e-06,
      "longitude_deg": 160.74880226321133,
      "height_km": 540.3171328199296,
      "semi_major_axis_km": 6917.844978480324,
      "eccentricity": 0.0001077,
      "inclination_deg": 53.2158,
      "raan_deg": 125.8454,
      "arg_perigee_deg": 67.3526,
      "mean_anomaly_deg": 292.758,
      "mean_motion_rev_day": 15.08851585
    },
    {
      "epoch": "2026-04-28T16:42:17.842176Z",
      "apogee_km": 540.5070808579876,
      "perigee_km": 538.9464107969297,
      "latitude_deg": -2.174210977825546e-06,
      "longitude_deg": 12.358061647854651,
      "height_km": 540.3041228893763,
      "semi_major_axis_km": 6917.863745827459,
      "eccentricity": 0.0001128,
      "inclination_deg": 53.2161,
      "raan_deg": 119.6002,
      "arg_perigee_deg": 65.8988,
      "mean_anomaly_deg": 294.2122,
      "mean_motion_rev_day": 15.08845445
    },
    {
      "epoch": "2026-04-29T08:36:09.460512Z",
      "apogee_km": 540.6003788511343,
      "perigee_km": 538.8774126805356,
      "latitude_deg": -3.468207561227321e-06,
      "longitude_deg": 130.2663904129577,
      "height_km": 540.307533609711,
      "semi_major_axis_km": 6917.875895765835,
      "eccentricity": 0.00012453,
      "inclination_deg": 53.2171,
      "raan_deg": 116.6265,
      "arg_perigee_deg": 67.6688,
      "mean_anomaly_deg": 292.4436,
      "mean_motion_rev_day": 15.0884147
    },
    {
      "epoch": "2026-04-30T08:26:56.410656Z",
      "apogee_km": 540.5648686097384,
      "perigee_km": 538.9352911292044,
      "latitude_deg": 3.845547770542596e-05,
      "longitude_deg": 127.13216015930215,
      "height_km": 540.3961467718398,
      "semi_major_axis_km": 6917.887079869471,
      "eccentricity": 0.00011778,
      "inclination_deg": 53.2172,
      "raan_deg": 112.1672,
      "arg_perigee_deg": 72.136,
      "mean_anomaly_deg": 287.9761,
      "mean_motion_rev_day": 15.08837811
    },
    {
      "epoch": "2026-05-02T04:57:44.178048Z",
      "apogee_km": 540.5715280455079,
      "perigee_km": 538.922304519866,
      "latitude_deg": -1.624752806460356e-05,
      "longitude_deg": 169.2775915901695,
      "height_km": 540.4338434796886,
      "semi_major_axis_km": 6917.883916282686,
      "eccentricity": 0.0001192,
      "inclination_deg": 53.2167,
      "raan_deg": 103.8398,
      "arg_perigee_deg": 75.3185,
      "mean_anomaly_deg": 284.7939,
      "mean_motion_rev_day": 15.08838846
    },
    {
      "epoch": "2026-05-03T15:56:13.017120Z",
      "apogee_km": 540.5849804132595,
      "perigee_km": 538.8914845563468,
      "latitude_deg": -2.597722590815154e-05,
      "longitude_deg": -3.320841177382908,
      "height_km": 540.4099074165232,
      "semi_major_axis_km": 6917.875232484803,
      "eccentricity": 0.0001224,
      "inclination_deg": 53.2171,
      "raan_deg": 97.2979,
      "arg_perigee_deg": 74.6424,
      "mean_anomaly_deg": 285.4703,
      "mean_motion_rev_day": 15.08841687
    }
  ]
}